CCSDS_OMM_VERS = 2.0
CREATION_DATE  = 
ORIGINATOR     = 

OBJECT_NAME    = 2025-274N
OBJECT_ID      = 2025-274N
CENTER_NAME    = EARTH
REF_FRAME      = TEME
TIME_SYSTEM    = UTC
MEAN_ELEMENT_THEORY = SGP/SGP4

EPOCH          = 2025-12-21T07:32:28.576896
MEAN_MOTION    = 14.93193219
ECCENTRICITY   = .0013714
INCLINATION    = 97.7407
RA_OF_ASC_NODE = 282.4008
ARG_OF_PERICENTER = 250.2955
MEAN_ANOMALY   = 109.6786

EPHEMERIS_TYPE = 0
CLASSIFICATION_TYPE = U
NORAD_CAT_ID   = 66662
ELEMENT_SET_NO = 999
REV_AT_EPOCH   = 368
BSTAR          = .14667E-3
MEAN_MOTION_DOT = .1477E-4
MEAN_MOTION_DDOT = 0

CCSDS_OMM_VERS = 2.0
CREATION_DATE  = 
ORIGINATOR     = 

OBJECT_NAME    = KSLV-II R/B
OBJECT_ID      = 2025-274P
CENTER_NAME    = EARTH
REF_FRAME      = TEME
TIME_SYSTEM    = UTC
MEAN_ELEMENT_THEORY = SGP/SGP4

EPOCH          = 2025-12-20T18:39:17.894880
MEAN_MOTION    = 14.97471728
ECCENTRICITY   = .0056938
INCLINATION    = 97.7441
RA_OF_ASC_NODE = 282.0453
ARG_OF_PERICENTER = 291.1678
MEAN_ANOMALY   = 68.3465

EPHEMERIS_TYPE = 0
CLASSIFICATION_TYPE = U
NORAD_CAT_ID   = 66663
ELEMENT_SET_NO = 999
REV_AT_EPOCH   = 361
BSTAR          = .85036E-3
MEAN_MOTION_DOT = .10185E-3
MEAN_MOTION_DDOT = 0

CCSDS_OMM_VERS = 2.0
CREATION_DATE  = 
ORIGINATOR     = 

OBJECT_NAME    = SOYUZ-MS 28
OBJECT_ID      = 2025-275A
CENTER_NAME    = EARTH
REF_FRAME      = TEME
TIME_SYSTEM    = UTC
MEAN_ELEMENT_THEORY = SGP/SGP4

EPOCH          = 2025-12-21T10:34:25.499424
MEAN_MOTION    = 15.49701473
ECCENTRICITY   = .0003157
INCLINATION    = 51.6323
RA_OF_ASC_NODE = 99.3910
ARG_OF_PERICENTER = 280.7962
MEAN_ANOMALY   = 79.2671

EPHEMERIS_TYPE = 0
CLASSIFICATION_TYPE = U
NORAD_CAT_ID   = 66664
ELEMENT_SET_NO = 999
REV_AT_EPOCH   = 379
BSTAR          = .16671E-3
MEAN_MOTION_DOT = .8972E-4
MEAN_MOTION_DDOT = 0

CCSDS_OMM_VERS = 2.0
CREATION_DATE  = 
ORIGINATOR     = 

OBJECT_NAME    = FORMOSAT-8A
OBJECT_ID      = 2025-276A
CENTER_NAME    = EARTH
REF_FRAME      = TEME
TIME_SYSTEM    = UTC
MEAN_ELEMENT_THEORY = SGP/SGP4

EPOCH          = 2025-12-21T10:22:02.068032
MEAN_MOTION    = 15.00336147
ECCENTRICITY   = .0003762
INCLINATION    = 97.6581
RA_OF_ASC_NODE = 67.2486
ARG_OF_PERICENTER = 197.2762
MEAN_ANOMALY   = 162.8334

EPHEMERIS_TYPE = 0
CLASSIFICATION_TYPE = U
NORAD_CAT_ID   = 66666
ELEMENT_SET_NO = 999
REV_AT_EPOCH   = 339
BSTAR          = .3519E-3
MEAN_MOTION_DOT = .4357E-4
MEAN_MOTION_DDOT = 0

CCSDS_OMM_VERS = 2.0
CREATION_DATE  = 
ORIGINATOR     = 

OBJECT_NAME    = PELICAN-5
OBJECT_ID      = 2025-276B
CENTER_NAME    = EARTH
REF_FRAME      = TEME
TIME_SYSTEM    = UTC
MEAN_ELEMENT_THEORY = SGP/SGP4

EPOCH          = 2025-12-21T12:08:02.415264
MEAN_MOTION    = 15.17590875
ECCENTRICITY   = .0002182
INCLINATION    = 97.4417
RA_OF_ASC_NODE = 67.1289
ARG_OF_PERICENTER = 220.2838
MEAN_ANOMALY   = 139.8234

EPHEMERIS_TYPE = 0
CLASSIFICATION_TYPE = U
NORAD_CAT_ID   = 66667
ELEMENT_SET_NO = 999
REV_AT_EPOCH   = 345
BSTAR          = .33578E-3
MEAN_MOTION_DOT = .6682E-4
MEAN_MOTION_DDOT = 0

CCSDS_OMM_VERS = 2.0
CREATION_DATE  = 
ORIGINATOR     = 

OBJECT_NAME    = TRANSPORTER-15 C
OBJECT_ID      = 2025-276C
CENTER_NAME    = EARTH
REF_FRAME      = TEME
TIME_SYSTEM    = UTC
MEAN_ELEMENT_THEORY = SGP/SGP4

EPOCH          = 2025-12-21T10:53:27.352320
MEAN_MOTION    = 15.17098360
ECCENTRICITY   = .0007678
INCLINATION    = 97.4282
RA_OF_ASC_NODE = 67.0061
ARG_OF_PERICENTER = 272.2532
MEAN_ANOMALY   = 87.7823

EPHEMERIS_TYPE = 0
CLASSIFICATION_TYPE = U
NORAD_CAT_ID   = 66668
ELEMENT_SET_NO = 999
REV_AT_EPOCH   = 344
BSTAR          = .8452E-3
MEAN_MOTION_DOT = .16718E-3
MEAN_MOTION_DDOT = 0

CCSDS_OMM_VERS = 2.0
CREATION_DATE  = 
ORIGINATOR     = 

OBJECT_NAME    = TRANSPORTER-15 D
OBJECT_ID      = 2025-276D
CENTER_NAME    = EARTH
REF_FRAME      = TEME
TIME_SYSTEM    = UTC
MEAN_ELEMENT_THEORY = SGP/SGP4

EPOCH          = 2025-12-21T02:39:18.210816
MEAN_MOTION    = 15.34134881
ECCENTRICITY   = .00748198
INCLINATION    = 97.4314
RA_OF_ASC_NODE = 66.7079
ARG_OF_PERICENTER = 232.3102
MEAN_ANOMALY   = 127.1341

EPHEMERIS_TYPE = 0
CLASSIFICATION_TYPE = U
NORAD_CAT_ID   = 66669
ELEMENT_SET_NO = 999
REV_AT_EPOCH   = 339
BSTAR          = .27830351E-2
MEAN_MOTION_DOT = .101698E-2
MEAN_MOTION_DDOT = 0

CCSDS_OMM_VERS = 2.0
CREATION_DATE  = 
ORIGINATOR     = 

OBJECT_NAME    = TRANSPORTER-15 E
OBJECT_ID      = 2025-276E
CENTER_NAME    = EARTH
REF_FRAME      = TEME
TIME_SYSTEM    = UTC
MEAN_ELEMENT_THEORY = SGP/SGP4

EPOCH          = 2025-12-21T10:51:41.863104
MEAN_MOTION    = 15.17166731
ECCENTRICITY   = .0007118
INCLINATION    = 97.4306
RA_OF_ASC_NODE = 67.0150
ARG_OF_PERICENTER = 276.5154
MEAN_ANOMALY   = 83.5269

EPHEMERIS_TYPE = 0
CLASSIFICATION_TYPE = U
NORAD_CAT_ID   = 66670
ELEMENT_SET_NO = 999
REV_AT_EPOCH   = 344
BSTAR          = .86778E-3
MEAN_MOTION_DOT = .17199E-3
MEAN_MOTION_DDOT = 0

CCSDS_OMM_VERS = 2.0
CREATION_DATE  = 
ORIGINATOR     = 

OBJECT_NAME    = TRANSPORTER-15 F
OBJECT_ID      = 2025-276F
CENTER_NAME    = EARTH
REF_FRAME      = TEME
TIME_SYSTEM    = UTC
MEAN_ELEMENT_THEORY = SGP/SGP4

EPOCH          = 2025-12-21T10:48:34.865856
MEAN_MOTION    = 15.17072678
ECCENTRICITY   = .0005039
INCLINATION    = 97.4428
RA_OF_ASC_NODE = 67.0503
ARG_OF_PERICENTER = 257.8374
MEAN_ANOMALY   = 102.2295

EPHEMERIS_TYPE = 0
CLASSIFICATION_TYPE = U
NORAD_CAT_ID   = 66671
ELEMENT_SET_NO = 999
REV_AT_EPOCH   = 344
BSTAR          = .48987E-3
MEAN_MOTION_DOT = .9641E-4
MEAN_MOTION_DDOT = 0

CCSDS_OMM_VERS = 2.0
CREATION_DATE  = 
ORIGINATOR     = 

OBJECT_NAME    = TRANSPORTER-15 G
OBJECT_ID      = 2025-276G
CENTER_NAME    = EARTH
REF_FRAME      = TEME
TIME_SYSTEM    = UTC
MEAN_ELEMENT_THEORY = SGP/SGP4

EPOCH          = 2025-12-21T10:54:51.929280
MEAN_MOTION    = 15.16614975
ECCENTRICITY   = .000533
INCLINATION    = 97.4400
RA_OF_ASC_NODE = 67.0372
ARG_OF_PERICENTER = 256.2275
MEAN_ANOMALY   = 103.8365

EPHEMERIS_TYPE = 0
CLASSIFICATION_TYPE = U
NORAD_CAT_ID   = 66672
ELEMENT_SET_NO = 999
REV_AT_EPOCH   = 344
BSTAR          = .34957E-3
MEAN_MOTION_DOT = .6769E-4
MEAN_MOTION_DDOT = 0

CCSDS_OMM_VERS = 2.0
CREATION_DATE  = 
ORIGINATOR     = 

OBJECT_NAME    = TRANSPORTER-15 H
OBJECT_ID      = 2025-276H
CENTER_NAME    = EARTH
REF_FRAME      = TEME
TIME_SYSTEM    = UTC
MEAN_ELEMENT_THEORY = SGP/SGP4

EPOCH          = 2025-12-21T10:50:00.934080
MEAN_MOTION    = 15.17077942
ECCENTRICITY   = .0005789
INCLINATION    = 97.4368
RA_OF_ASC_NODE = 67.0319
ARG_OF_PERICENTER = 274.7701
MEAN_ANOMALY   = 85.2872

EPHEMERIS_TYPE = 0
CLASSIFICATION_TYPE = U
NORAD_CAT_ID   = 66673
ELEMENT_SET_NO = 999
REV_AT_EPOCH   = 344
BSTAR          = .46319E-3
MEAN_MOTION_DOT = .9114E-4
MEAN_MOTION_DDOT = 0

CCSDS_OMM_VERS = 2.0
CREATION_DATE  = 
ORIGINATOR     = 

OBJECT_NAME    = TRANSPORTER-15 J
OBJECT_ID      = 2025-276J
CENTER_NAME    = EARTH
REF_FRAME      = TEME
TIME_SYSTEM    = UTC
MEAN_ELEMENT_THEORY = SGP/SGP4

EPOCH          = 2025-12-21T10:53:16.478016
MEAN_MOTION    = 15.15191397
ECCENTRICITY   = .00065
INCLINATION    = 97.4372
RA_OF_ASC_NODE = 67.0325
ARG_OF_PERICENTER = 333.1103
MEAN_ANOMALY   = 26.9792

EPHEMERIS_TYPE = 0
CLASSIFICATION_TYPE = U
NORAD_CAT_ID   = 66674
ELEMENT_SET_NO = 999
REV_AT_EPOCH   = 344
BSTAR          = -.2818E-1
MEAN_MOTION_DOT = -.494676E-2
MEAN_MOTION_DDOT = 0

