2025-274N               
1 66662U 25274N   25355.31421964  .00001477  00000+0  14667-3 0  9991
2 66662  97.7407 282.4008 0013714 250.2955 109.6786 14.93193219  3686
KSLV-II R/B             
1 66663U 25274P   25354.77729045  .00010185  00000+0  85036-3 0  9996
2 66663  97.7441 282.0453 0056938 291.1678  68.3465 14.97471728  3612
SOYUZ-MS 28             
1 66664U 25275A   25355.44057291  .00008972  00000+0  16671-3 0  9990
2 66664  51.6323  99.3910 0003157 280.7962  79.2671 15.49701473  3793
FORMOSAT-8A             
1 66666U 25276A   25355.43196838  .00004357  00000+0  35190-3 0  9993
2 66666  97.6581  67.2486 0003762 197.2762 162.8334 15.00336147  3395
PELICAN-5               
1 66667U 25276B   25355.50558351  .00006682  00000+0  33578-3 0  9995
2 66667  97.4417  67.1289 0002182 220.2838 139.8234 15.17590875  3456
TRANSPORTER-15 C        
1 66668U 25276C   25355.45378880  .00016718  00000+0  84520-3 0  9991
2 66668  97.4282  67.0061 0007678 272.2532  87.7823 15.17098360  3443
TRANSPORTER-15 D        
1 66669U 25276D   25355.11062744  .00101698  00000+0  27830-2 0  9996
2 66669  97.4314  66.7079 0074819 232.3102 127.1341 15.34134881  3392
TRANSPORTER-15 E        
1 66670U 25276E   25355.45256786  .00017199  00000+0  86778-3 0  9995
2 66670  97.4306  67.0150 0007118 276.5154  83.5269 15.17166731  3444
TRANSPORTER-15 F        
1 66671U 25276F   25355.45040354  .00009641  00000+0  48987-3 0  9991
2 66671  97.4428  67.0503 0005039 257.8374 102.2295 15.17072678  3442
TRANSPORTER-15 G        
1 66672U 25276G   25355.45476770  .00006769  00000+0  34957-3 0  9997
2 66672  97.4400  67.0372 0005330 256.2275 103.8365 15.16614975  3440
TRANSPORTER-15 H        
1 66673U 25276H   25355.45139970  .00009114  00000+0  46319-3 0  9998
2 66673  97.4368  67.0319 0005789 274.7701  85.2872 15.17077942  3446
TRANSPORTER-15 J        
1 66674U 25276J   25355.45366294 -.00494676  00000+0 -28180-1 0  9997
2 66674  97.4372  67.0325 0006500 333.1103  26.9792 15.15191397  3449
